0081P         2022 12 15.6510  1.598328  0.537143   41.6466  136.0988    3.2366  20220519   7.0  6.0  81P/Wild                                                 MPEC 2022-H30
0082P         2018 06 23.4323  3.630534  0.121809  226.4699  239.3142    1.1290  20220519  15.0  4.0  82P/Gehrels                                              MPC133426
0084P         2020 06  4.0530  1.718181  0.515951  281.5948  108.1599    7.5507  20220519   9.5  8.0  84P/Giclas                                               MPEC 2020-FB5
0086P         2022 02  7.6736  2.260789  0.372201  179.4316   72.3561   15.4755  20220519  11.0  6.0  86P/Wild                                                 MPEC 2022-J42
0087P         2020 05 18.2413  2.085494  0.397269   26.7639  180.9041    2.7294  20220519   7.2 10.0  87P/Bus                                                  MPEC 2020-SI8
0088P         2020 09 26.4699  1.354055  0.563992  235.9229   56.6768    4.3828  20220519  11.0  6.0  88P/Howell                                               MPEC 2022-ED3
0089P         2024 03 26.4001  2.220962  0.408340  250.3889   41.3555   12.0704  20220519  11.5  6.0  89P/Russell                                              MPC100283
0090P         2017 06 20.5402  2.960959  0.510699   29.0512   13.2050    9.6508  20220519   8.5  6.0  90P/Gehrels                                              MPC107051
0091P         2020 11 10.8418  2.603912  0.332916  355.4481  247.4166   14.0840  20220519   7.5  6.0  91P/Russell                                              MPEC 2021-S45
0092P         2027 07 13.0153  1.811069  0.661067  163.7874  181.3621   19.5069  20220519  12.0  6.0  92P/Sanguin                                              MPEC 2014-J58
0093P         2026 05  3.2976  1.694649  0.613192   74.8113  339.6463   12.2035  20220519   9.0  4.0  93P/Lovas                                                NK   2707
0094P         2023 05 21.1872  2.226994  0.365168   92.4433   70.8580    6.1881  20220519   9.0  6.0  94P/Russell                                              MPEC 2021-Y10
0095P         2046 10  1.0514  8.549373  0.376400  339.5736  209.2950    6.9226  20220519   6.5  2.0  95P/Chiron                                               MPC 75717
0096P         2023 01 31.0968  0.116418  0.961574   14.7494   93.9583   57.5081  20220519   9.0  4.0  96P/Machholz                                             MPEC 2017-T14
0097P         2022 02 15.5526  2.570229  0.459964  229.9716  184.0776   17.9521  20220519   5.5  6.0  97P/Metcalf-Brewington                                   MPEC 2022-C56
0098P         2021 01  4.7465  1.661429  0.562251  157.8335  114.6892   10.5603  20220519   9.0  8.0  98P/Takamizawa                                           MPEC 2021-W31
0099P         2022 04 12.5721  4.706106  0.229168  174.9258   28.1013    4.3397  20220519   4.5  6.0  99P/Kowal                                                MPEC 2022-J42
0100P         2022 08 10.9615  2.017616  0.412195  181.9758   37.6876   25.5655  20220519   9.0  8.0  100P/Hartley                                             MPEC 2022-J42
0101P         2020 01 12.8619  2.344253  0.596257  277.7268  116.2196    5.0518  20220519  10.0  4.8  101P/Chernykh                                            MPEC 2022-ED3
0102P         2021 01 22.5574  2.070715  0.457183   20.5982  339.3655   25.8845  20220519   6.5  8.0  102P/Shoemaker                                           MPEC 2022-C56
0103P         2023 10 12.5842  1.064912  0.693595  181.2861  219.7435   13.6081  20220519   8.5  8.0  103P/Hartley                                             MPEC 2018-HA5
0104P         2022 01 11.6235  1.073058  0.665490  227.2524  207.2088    5.7017  20220519  16.0  4.0  104P/Kowal                                               MPEC 2022-J42
0105P         2025 01 23.1181  2.049755  0.409037   46.4706  192.4001    9.1687  20220519  11.5  6.0  105P/Singer Brewster                                     MPC109147
0106P         2021 08 18.7997  1.528738  0.593840  353.6879   48.8801   19.5360  20220519  14.0  4.8  106P/Schuster                                            MPEC 2022-GA9
0107P         2022 08 24.6640  0.966651  0.631738   95.4394  266.7790    2.7993  20220519   9.0  4.0  107P/Wilson-Harrington                                   MPEC 2015-M77
0108P         2021 09 10.1268  1.660343  0.555968  354.4402   50.2864   11.4361  20220519   8.0 12.0  108P/Ciffreo                                             MPEC 2022-GA9
0109P         1992 12  8.5848  0.977400  0.962658  152.9838  139.0954  113.9149  20220519   4.0  6.0  109P/Swift-Tuttle                                        105   420
0110P         2021 10 18.3148  2.455679  0.318470  167.4479  287.5334   11.7056  20220519   1.0 12.0  110P/Hartley                                             MPEC 2022-HC2
0111P         2021 06 15.6866  3.707519  0.106495    0.9978   89.7616    4.2261  20220519   5.0  8.0  111P/Helin-Roman-Crockett                                MPC 75718
0112P         2020 02  8.2279  1.444402  0.590235   21.4685   31.8320   24.2066  20220519  14.0  6.0  112P/Urata-Niijima                                       MPEC 2021-S45
0113P         2022 06  1.4261  2.141687  0.419713  115.5135  306.6768    5.2901  20220519  13.5  4.0  113P/Spitaler                                            MPEC 2022-D36
0114P         2020 01 14.1300  1.576883  0.555041  172.7477  271.0356   18.2796  20220519  11.5  6.0  114P/Wiseman-Skiff                                       MPEC 2021-S45
0115P         2020 07 29.4809  2.057677  0.518317  120.9917  176.0073   11.6773  20220519  10.5  6.0  115P/Maury                                               MPEC 2021-UA9
0116P         2022 07 16.9425  2.197050  0.370575  173.2983   20.9798    3.6035  20220519   2.5 10.0  116P/Wild                                                MPEC 2022-J42
0117P         2022 07  7.7691  3.039623  0.255509  222.9396   58.8414    8.7040  20220519   2.5  8.0  117P/Helin-Roman-Alu                                     MPEC 2022-J42
0118P         2022 11 24.4582  1.829217  0.453582  314.8211  142.0900   10.0945  20220519  12.0  4.0  118P/Shoemaker-Levy                                      MPEC 2021-TD0
0119P         2022 08 11.8739  2.327982  0.388254  322.0117  104.5715    7.3934  20220519   3.5  8.0  119P/Parker-Hartley                                      MPEC 2022-CN4
0120P         2021 05  7.3314  2.478225  0.374766   36.6135  358.6711    8.4900  20220519  12.0  4.0  120P/Mueller                                             MPEC 2022-CN4
0121P         2023 06 27.9975  3.731048  0.185997   11.5392   94.1158   20.1648  20220519   6.5  8.0  121P/Shoemaker-Holt                                      MPEC 2021-Y10
0122P         1995 09  8.3185  0.664809  0.962278   12.9951   79.6154   85.2896  20220519   7.5  5.2  122P/de Vico                                             MPC 75718
0123P         2019 02  2.4607  2.152465  0.445048  104.0962   45.9601   15.2839  20220519  12.2  4.0  123P/West-Hartley                                        MPEC 2021-F20
0124P         2020 04 26.2912  1.670237  0.499895  184.7845    0.1129   31.7151  20220519  15.2  4.0  124P/Mrkos                                               MPEC 2021-F20
0125P         2024 03  7.3302  1.525177  0.512253   87.2187  153.1463    9.9866  20220519   9.0  4.0  125P/Spacewatch                                          MPEC 2015-M77
0126P         2023 07  5.2964  1.711171  0.696397  356.5687  357.8724   45.8762  20220519   9.0  4.0  126P/IRAS                                                MPC 66205
0127P         2022 08 10.5385  2.211088  0.360129    6.3096   13.6051   14.2998  20220519  11.0  6.0  127P/Holt-Olmstead                                       MPC 84321
0128P         2026 07 17.1191  3.046985  0.321385  210.2602  214.3136    4.3694  20220519   8.5  4.0  128P/Shoemaker-Holt                                      MPC 89014
0129P         2022 11 30.7342  3.924283  0.084478  307.5291  184.8671    3.4422  20220519  11.0  4.0  129P/Shoemaker-Levy                                      MPEC 2022-ED3
0130P         2024 04 14.6187  1.822693  0.461291  246.0708   70.1977    6.0624  20220519  10.0  6.0  130P/McNaught-Hughes                                     MPEC 2022-ED3
0131P         2019 01 25.0360  2.412269  0.344412  179.0373  214.1470    7.3590  20220519  11.0  4.0  131P/Mueller                                             MPC102101
0132P         2021 11 13.1288  1.691842  0.564629  216.3585  173.9961    5.3826  20220519  11.0  6.0  132P/Helin-Roman-Alu                                     MPEC 2022-GA9
0133P         2024 05  9.9612  2.669685  0.156611  131.8930  160.0985    1.3896  20220519  15.4  2.0  133P/Elst-Pizarro                                        MPC 94676
0134P         2030 01 16.5043  2.597102  0.585328   18.8742  202.0576    4.3359  20220519  11.5  4.0  134P/Kowal-Vavrova                                       MPC 89012
0135P         2022 04  7.3641  2.680102  0.294882   22.3253  213.0250    6.0632  20220519   7.0  8.0  135P/Shoemaker-Levy                                      MPEC 2022-HC2
0136P         2025 01  2.2461  2.962084  0.293240  224.9979  137.4438    9.4243  20220519  11.0  4.0  136P/Mueller                                             MPEC 2020-W26
0137P         2018 12 14.3224  1.926834  0.573801  141.0973  232.9830    4.8558  20220519  11.0  4.0  137P/Shoemaker-Levy                                      MPEC 2021-N06
0138P         2019 05  3.3859  1.698217  0.531017   95.5495  309.3117   10.0903  20220519  15.0  6.0  138P/Shoemaker-Levy                                      MPEC 2016-U66
0139P         2017 12 10.6667  3.401728  0.247446  165.7212  242.1482    2.3355  20220519   9.5  4.0  139P/Vaisala-Oterma                                      MPEC 2020-HN5
0140P         2015 08  3.9630  1.974694  0.692497  172.7949  343.2359    3.8426  20220519  11.5  6.0  140P/Bowell-Skiff                                        MPEC 2015-E14
